{"type": "FeatureCollection", "features": [ {"type": "Feature", "properties": {"norad_id": 33825, "name": "COSMOS 2251 DEB", "group": "cosmos-2251-debris", "lat": 0.3875933488684206, "lon": 43.61620042688182, "alt_km": 606.8110826044285, "timestamp": "2025-12-04T15:47:54.491760+00:00", "meta": {"OBJECT_NAME": "COSMOS 2251 DEB", "OBJECT_ID": "1993-036BS", "EPOCH": "2025-12-04T07:56:28.501152", "MEAN_MOTION": 14.69648212, "ECCENTRICITY": 0.0084134, "INCLINATION": 73.9863, "RA_OF_ASC_NODE": 44.141, "ARG_OF_PERICENTER": 13.2984, "MEAN_ANOMALY": 56.0313, "EPHEMERIS_TYPE": 0, "CLASSIFICATION_TYPE": "U", "NORAD_CAT_ID": 33825, "ELEMENT_SET_NO": 999, "REV_AT_EPOCH": 88756, "BSTAR": 0.0019400241, "MEAN_MOTION_DOT": 0.00012176, "MEAN_MOTION_DDOT": 0}, "tle": {"line1": "1 33825U 93036BS  25338.33088543  .00012176  00000+0  19400-2 0  9999", "line2": "2 33825  73.9863  44.1410 0084134  13.2984  56.0313 14.69648212887565"}}, "geometry": {"type": "Point", "coordinates": [43.61620042688182, 0.3875933488684206]}}, {"type": "Feature", "properties": {"norad_id": 33826, "name": "COSMOS 2251 DEB", "group": "cosmos-2251-debris", "lat": 51.31990099017913, "lon": 85.97599188825768, "alt_km": 682.978531799663, "timestamp": "2025-12-04T15:47:54.491771+00:00", "meta": {"OBJECT_NAME": "COSMOS 2251 DEB", "OBJECT_ID": "1993-036BT", "EPOCH": "2025-12-04T07:32:21.166368", "MEAN_MOTION": 14.51590912, "ECCENTRICITY": 0.008416, "INCLINATION": 74.0655, "RA_OF_ASC_NODE": 65.715, "ARG_OF_PERICENTER": 112.7035, "MEAN_ANOMALY": 304.8201, "EPHEMERIS_TYPE": 0, "CLASSIFICATION_TYPE": "U", "NORAD_CAT_ID": 33826, "ELEMENT_SET_NO": 999, "REV_AT_EPOCH": 87647, "BSTAR": 0.0037929062, "MEAN_MOTION_DOT": 0.00015916, "MEAN_MOTION_DDOT": 0}, "tle": {"line1": "1 33826U 93036BT  25338.31413387  .00015916  00000+0  37929-2 0  9997", "line2": "2 33826  74.0655  65.7150 0084160 112.7035 304.8201 14.51590912876470"}}, "geometry": {"type": "Point", "coordinates": [85.97599188825768, 51.31990099017913]}}, {"type": "Feature", "properties": {"norad_id": 33828, "name": "COSMOS 2251 DEB", "group": "cosmos-2251-debris", "lat": 14.03903117821993, "lon": 69.01541255118417, "alt_km": 764.8542493229488, "timestamp": "2025-12-04T15:47:54.491782+00:00", "meta": {"OBJECT_NAME": "COSMOS 2251 DEB", "OBJECT_ID": "1993-036BV", "EPOCH": "2025-12-04T05:37:27.160032", "MEAN_MOTION": 14.44287527, "ECCENTRICITY": 0.00293445, "INCLINATION": 74.0475, "RA_OF_ASC_NODE": 253.9048, "ARG_OF_PERICENTER": 328.1535, "MEAN_ANOMALY": 153.9355, "EPHEMERIS_TYPE": 0, "CLASSIFICATION_TYPE": "U", "NORAD_CAT_ID": 33828, "ELEMENT_SET_NO": 999, "REV_AT_EPOCH": 88190, "BSTAR": 0.001175644, "MEAN_MOTION_DOT": 4.039e-05, "MEAN_MOTION_DDOT": 0}, "tle": {"line1": "1 33828U 93036BV  25338.23434213  .00004039  00000+0  11756-2 0  9995", "line2": "2 33828  74.0475 253.9048 0029344 328.1535 153.9355 14.44287527881904"}}, "geometry": {"type": "Point", "coordinates": [69.01541255118417, 14.03903117821993]}}, {"type": "Feature", "properties": {"norad_id": 33830, "name": "COSMOS 2251 DEB", "group": "cosmos-2251-debris", "lat": 4.113358453707496, "lon": 65.02793658232932, "alt_km": 670.6722863688183, "timestamp": "2025-12-04T15:47:54.491793+00:00", "meta": {"OBJECT_NAME": "COSMOS 2251 DEB", "OBJECT_ID": "1993-036BX", "EPOCH": "2025-12-04T05:47:58.578144", "MEAN_MOTION": 14.76719026, "ECCENTRICITY": 0.00421805, "INCLINATION": 74.0335, "RA_OF_ASC_NODE": 247.0239, "ARG_OF_PERICENTER": 8.9027, "MEAN_ANOMALY": 112.6851, "EPHEMERIS_TYPE": 0, "CLASSIFICATION_TYPE": "U", "NORAD_CAT_ID": 33830, "ELEMENT_SET_NO": 999, "REV_AT_EPOCH": 89346, "BSTAR": 0.0024056886, "MEAN_MOTION_DOT": 0.00017104, "MEAN_MOTION_DDOT": 0}, "tle": {"line1": "1 33830U 93036BX  25338.24165021  .00017104  00000+0  24057-2 0  9992", "line2": "2 33830  74.0335 247.0239 0042180   8.9027 112.6851 14.76719026893466"}}, "geometry": {"type": "Point", "coordinates": [65.02793658232932, 4.113358453707496]}}, {"type": "Feature", "properties": {"norad_id": 33832, "name": "COSMOS 2251 DEB", "group": "cosmos-2251-debris", "lat": -20.91357004615611, "lon": -140.88006416583195, "alt_km": 693.4214847296853, "timestamp": "2025-12-04T15:47:54.491804+00:00", "meta": {"OBJECT_NAME": "COSMOS 2251 DEB", "OBJECT_ID": "1993-036BZ", "EPOCH": "2025-12-04T03:26:00.676032", "MEAN_MOTION": 14.60469448, "ECCENTRICITY": 0.00255921, "INCLINATION": 74.0551, "RA_OF_ASC_NODE": 226.3743, "ARG_OF_PERICENTER": 259.172, "MEAN_ANOMALY": 251.1656, "EPHEMERIS_TYPE": 0, "CLASSIFICATION_TYPE": "U", "NORAD_CAT_ID": 33832, "ELEMENT_SET_NO": 999, "REV_AT_EPOCH": 88299, "BSTAR": 0.0029533891, "MEAN_MOTION_DOT": 0.00014386, "MEAN_MOTION_DDOT": 0}, "tle": {"line1": "1 33832U 93036BZ  25338.14306338  .00014386  00000+0  29534-2 0  9995", "line2": "2 33832  74.0551 226.3743 0025592 259.1720 251.1656 14.60469448882997"}}, "geometry": {"type": "Point", "coordinates": [-140.88006416583195, -20.91357004615611]}}, {"type": "Feature", "properties": {"norad_id": 33835, "name": "COSMOS 2251 DEB", "group": "cosmos-2251-debris", "lat": 50.98786771305414, "lon": -84.09933599949011, "alt_km": 654.0701233412947, "timestamp": "2025-12-04T15:47:54.491814+00:00", "meta": {"OBJECT_NAME": "COSMOS 2251 DEB", "OBJECT_ID": "1993-036CC", "EPOCH": "2025-12-02T19:28:26.300928", "MEAN_MOTION": 14.62061225, "ECCENTRICITY": 0.00557211, "INCLINATION": 74.0555, "RA_OF_ASC_NODE": 120.095, "ARG_OF_PERICENTER": 176.3218, "MEAN_ANOMALY": 313.2995, "EPHEMERIS_TYPE": 0, "CLASSIFICATION_TYPE": "U", "NORAD_CAT_ID": 33835, "ELEMENT_SET_NO": 999, "REV_AT_EPOCH": 88644, "BSTAR": 0.0016115926, "MEAN_MOTION_DOT": 8.252e-05, "MEAN_MOTION_DDOT": 0}, "tle": {"line1": "1 33835U 93036CC  25336.81141552  .00008252  00000+0  16116-2 0  9992", "line2": "2 33835  74.0555 120.0950 0055721 176.3218 313.2995 14.62061225886446"}}, "geometry": {"type": "Point", "coordinates": [-84.09933599949011, 50.98786771305414]}}, {"type": "Feature", "properties": {"norad_id": 33836, "name": "COSMOS 2251 DEB", "group": "cosmos-2251-debris", "lat": 6.200696606027117, "lon": -83.3197742918087, "alt_km": 642.0077645279753, "timestamp": "2025-12-04T15:47:54.491824+00:00", "meta": {"OBJECT_NAME": "COSMOS 2251 DEB", "OBJECT_ID": "1993-036CD", "EPOCH": "2025-12-04T06:34:35.632992", "MEAN_MOTION": 14.79355493, "ECCENTRICITY": 0.00224427, "INCLINATION": 73.9977, "RA_OF_ASC_NODE": 275.651, "ARG_OF_PERICENTER": 131.9482, "MEAN_ANOMALY": 349.3006, "EPHEMERIS_TYPE": 0, "CLASSIFICATION_TYPE": "U", "NORAD_CAT_ID": 33836, "ELEMENT_SET_NO": 999, "REV_AT_EPOCH": 63963, "BSTAR": 0.003307709, "MEAN_MOTION_DOT": 0.00024809, "MEAN_MOTION_DDOT": 0}, "tle": {"line1": "1 33836U 93036CD  25338.27402353  .00024809  00000+0  33077-2 0  9995", "line2": "2 33836  73.9977 275.6510 0022442 131.9482 349.3006 14.79355493639637"}}, "geometry": {"type": "Point", "coordinates": [-83.3197742918087, 6.200696606027117]}}, {"type": "Feature", "properties": {"norad_id": 33837, "name": "COSMOS 2251 DEB", "group": "cosmos-2251-debris", "lat": 69.35088215882503, "lon": -158.71757003451535, "alt_km": 741.2534646684317, "timestamp": "2025-12-04T15:47:54.491835+00:00", "meta": {"OBJECT_NAME": "COSMOS 2251 DEB", "OBJECT_ID": "1993-036CE", "EPOCH": "2025-12-04T07:02:51.975168", "MEAN_MOTION": 14.50673567, "ECCENTRICITY": 0.00356636, "INCLINATION": 74.0129, "RA_OF_ASC_NODE": 71.4984, "ARG_OF_PERICENTER": 294.6052, "MEAN_ANOMALY": 65.1394, "EPHEMERIS_TYPE": 0, "CLASSIFICATION_TYPE": "U", "NORAD_CAT_ID": 33837, "ELEMENT_SET_NO": 999, "REV_AT_EPOCH": 88673, "BSTAR": 0.00055836458, "MEAN_MOTION_DOT": 2.183e-05, "MEAN_MOTION_DDOT": 0}, "tle": {"line1": "1 33837U 93036CE  25338.29365712  .00002183  00000+0  55836-3 0  9994", "line2": "2 33837  74.0129  71.4984 0035663 294.6052  65.1394 14.50673567886737"}}, "geometry": {"type": "Point", "coordinates": [-158.71757003451535, 69.35088215882503]}}, {"type": "Feature", "properties": {"norad_id": 33838, "name": "COSMOS 2251 DEB", "group": "cosmos-2251-debris", "lat": 41.89290756629071, "lon": 179.82677028974794, "alt_km": 735.9292298146838, "timestamp": "2025-12-04T15:47:54.491845+00:00", "meta": {"OBJECT_NAME": "COSMOS 2251 DEB", "OBJECT_ID": "1993-036CF", "EPOCH": "2025-12-04T06:27:01.333152", "MEAN_MOTION": 14.48324796, "ECCENTRICITY": 0.00273892, "INCLINATION": 74.0357, "RA_OF_ASC_NODE": 165.6768, "ARG_OF_PERICENTER": 288.6837, "MEAN_ANOMALY": 245.0662, "EPHEMERIS_TYPE": 0, "CLASSIFICATION_TYPE": "U", "NORAD_CAT_ID": 33838, "ELEMENT_SET_NO": 999, "REV_AT_EPOCH": 88446, "BSTAR": 0.00069074328, "MEAN_MOTION_DOT": 2.568e-05, "MEAN_MOTION_DDOT": 0}, "tle": {"line1": "1 33838U 93036CF  25338.26876543  .00002568  00000+0  69074-3 0  9997", "line2": "2 33838  74.0357 165.6768 0027389 288.6837 245.0662 14.48324796884466"}}, "geometry": {"type": "Point", "coordinates": [179.82677028974794, 41.89290756629071]}}, {"type": "Feature", "properties": {"norad_id": 33839, "name": "COSMOS 2251 DEB", "group": "cosmos-2251-debris", "lat": -40.668103105448, "lon": 56.24227933912818, "alt_km": 708.562833702239, "timestamp": "2025-12-04T15:47:54.491856+00:00", "meta": {"OBJECT_NAME": "COSMOS 2251 DEB", "OBJECT_ID": "1993-036CG", "EPOCH": "2025-12-03T03:25:22.042272", "MEAN_MOTION": 14.64373974, "ECCENTRICITY": 0.00848223, "INCLINATION": 74.0399, "RA_OF_ASC_NODE": 224.9194, "ARG_OF_PERICENTER": 339.2319, "MEAN_ANOMALY": 177.3871, "EPHEMERIS_TYPE": 0, "CLASSIFICATION_TYPE": "U", "NORAD_CAT_ID": 33839, "ELEMENT_SET_NO": 999, "REV_AT_EPOCH": 89439, "BSTAR": 0.00040044968, "MEAN_MOTION_DOT": 2.197e-05, "MEAN_MOTION_DDOT": 0}, "tle": {"line1": "1 33839U 93036CG  25337.14261623  .00002197  00000+0  40045-3 0  9996", "line2": "2 33839  74.0399 224.9194 0084822 339.2319 177.3871 14.64373974894390"}}, "geometry": {"type": "Point", "coordinates": [56.24227933912818, -40.668103105448]}}]}